NORAD_CAT_ID,OBJECT_NAME,OBJECT_TYPE,EPOCH,MEAN_MOTION,ECCENTRICITY,INCLINATION,RA_OF_ASC_NODE,ARG_OF_PERICENTER,MEAN_ANOMALY,BSTAR,MEAN_MOTION_DOT,MEAN_MOTION_DDOT,TLE_LINE0,TLE_LINE1,TLE_LINE2,SEMIMAJOR_AXIS,PERIOD,APOGEE,PERIGEE,DECAYED
51885.0,STARLINK-3584,PAYLOAD,2023-10-11 13:32:49,15.08843012,0.0001845,53.2175,350.162,103.6054,256.5143,0.00064074,9.925e-05,0.0,0 STARLINK-3584,1 51885U 22022AK  23284.56445865  .00009925  00000-0  64074-3 0  9996,2 51885  53.2175 350.1620 0001845 103.6054 256.5143 15.08843012 90373,6917.871,95.437,541.013,538.46,0.0
51885.0,STARLINK-3584,PAYLOAD,2023-10-12 11:48:13,15.08847694,0.0002049,53.2178,345.9971,87.3694,272.7533,0.00060044,9.283e-05,0.0,0 STARLINK-3584,1 51885U 22022AK  23285.49182030  .00009283  00000-0  60044-3 0  9991,2 51885  53.2178 345.9971 0002049  87.3694 272.7533 15.08847694 90511,6917.857,95.437,541.139,538.304,0.0
51885.0,STARLINK-3584,PAYLOAD,2023-10-12 22:55:55,15.08847208,0.0002068,53.2164,343.9173,86.1497,273.9732,0.00033878,5.109e-05,0.0,0 STARLINK-3584,1 51885U 22022AK  23285.95549978  .00005109  00000-0  33878-3 0  9998,2 51885  53.2164 343.9173 0002068  86.1497 273.9732 15.08847208 90589,6917.858,95.437,541.154,538.293,0.0
51885.0,STARLINK-3584,PAYLOAD,2023-10-13 11:39:00,15.08846202,0.0002047,53.2165,341.536,97.0116,263.1109,0.00023201,3.407e-05,0.0,0 STARLINK-3584,1 51885U 22022AK  23286.48541918  .00003407  00000-0  23201-3 0  9991,2 51885  53.2165 341.5360 0002047  97.0116 263.1109 15.08846202 90669,6917.861,95.437,541.143,538.31,0.0
51885.0,STARLINK-3584,PAYLOAD,2023-10-13 21:11:19,15.08842336,0.0002065,53.2181,339.7527,87.421,272.7018,0.00010497,1.383e-05,0.0,0 STARLINK-3584,1 51885U 22022AK  23286.88286054  .00001383  00000-0  10497-3 0  9996,2 51885  53.2181 339.7527 0002065  87.4210 272.7018 15.08842336 90725,6917.873,95.437,541.167,538.31,0.0
51885.0,STARLINK-3584,PAYLOAD,2023-10-14 03:32:51,15.08844517,0.0001959,53.2162,338.5638,86.7014,273.4202,0.00011116,1.482e-05,0.0,0 STARLINK-3584,1 51885U 22022AK  23287.14781849  .00001482  00000-0  11116-3 0  9997,2 51885  53.2162 338.5638 0001959  86.7014 273.4202 15.08844517 90769,6917.867,95.437,541.087,538.376,0.0
51885.0,STARLINK-3584,PAYLOAD,2023-10-14 13:05:09,15.08855729,0.0001801,53.2157,336.7771,92.6797,267.4401,0.00031938,4.801e-05,0.0,0 STARLINK-3584,1 51885U 22022AK  23287.54525234  .00004801  00000-0  31938-3 0  9997,2 51885  53.2157 336.7771 0001801  92.6797 267.4401 15.08855729 90829,6917.832,95.437,540.943,538.451,0.0
51885.0,STARLINK-3584,PAYLOAD,2023-10-14 21:02:06,15.08833607,0.000188,53.217,335.2915,94.6939,265.4268,-5.5446e-05,-1.17e-05,0.0,0 STARLINK-3584,1 51885U 22022AK  23287.87646162 -.00001170  00000-0 -55446-4 0  9996,2 51885  53.2170 335.2915 0001880  94.6939 265.4268 15.08833607 90870,6917.9,95.438,541.065,538.464,0.0
51885.0,STARLINK-3584,PAYLOAD,2023-10-14 22:37:29,15.08832422,0.0001891,53.2158,334.9936,98.6919,261.4287,-7.3513e-05,-1.458e-05,0.0,0 STARLINK-3584,1 51885U 22022AK  23287.94270214 -.00001458  00000-0 -73513-4 0  9999,2 51885  53.2158 334.9936 0001891  98.6919 261.4287 15.08832422 90881,6917.904,95.438,541.077,538.46,0.0
51885.0,STARLINK-3584,PAYLOAD,2023-10-15 09:45:12,15.08820873,0.0001741,53.2168,332.9125,100.0502,260.0687,-0.00013961,-2.508e-05,0.0,0 STARLINK-3584,1 51885U 22022AK  23288.40639365 -.00002508  00000-0 -13961-3 0  9994,2 51885  53.2168 332.9125 0001741 100.0502 260.0687 15.08820873 90954,6917.939,95.439,541.008,538.599,0.0
51885.0,STARLINK-3584,PAYLOAD,2023-10-15 12:55:58,15.08827918,0.0001856,53.2164,332.3166,99.8688,260.2514,-0.00014101,-2.531e-05,0.0,0 STARLINK-3584,1 51885U 22022AK  23288.53887128 -.00002531  00000-0 -14101-3 0  9993,2 51885  53.2164 332.3166 0001856  99.8688 260.2514 15.08827918 90976,6917.917,95.438,541.066,538.498,0.0
51885.0,STARLINK-3584,PAYLOAD,2023-10-16 08:00:35,15.0885245,0.0001803,53.216,328.7492,98.8272,261.2924,0.00068151,0.00010579,0.0,0 STARLINK-3584,1 51885U 22022AK  23289.33374782  .00010579  00000-0  68151-3 0  9992,2 51885  53.2160 328.7492 0001803  98.8272 261.2924 15.08852450 91092,6917.842,95.437,540.955,538.46,0.0
51885.0,STARLINK-3584,PAYLOAD,2023-10-16 09:35:59,15.08861475,0.0001831,53.216,328.4516,98.9732,261.1467,0.0012578,0.00019798,0.0,0 STARLINK-3584,1 51885U 22022AK  23289.39998848  .00019798  00000-0  12578-2 0  9996,2 51885  53.2160 328.4516 0001831  98.9732 261.1467 15.08861475 91109,6917.815,95.436,540.946,538.413,0.0
51885.0,STARLINK-3584,PAYLOAD,2023-10-17 09:26:46,15.08817396,0.0001641,53.2161,323.991,91.3584,268.7596,0.0013046,0.00020523,0.0,0 STARLINK-3584,1 51885U 22022AK  23290.39359469  .00020523  00000-0  13046-2 0  9997,2 51885  53.2161 323.9910 0001641  91.3584 268.7596 15.08817396 91254,6917.949,95.439,540.95,538.679,0.0
51885.0,STARLINK-3584,PAYLOAD,2023-10-17 18:59:05,15.08870863,0.0001979,53.2172,322.2067,98.0887,262.0329,0.0035559,0.00056809,0.0,0 STARLINK-3584,1 51885U 22022AK  23290.79103196  .00056809  00000-0  35559-2 0  9994,2 51885  53.2172 322.2067 0001979  98.0887 262.0329 15.08870863 91311,6917.786,95.436,541.02,538.282,0.0
51885.0,STARLINK-3584,PAYLOAD,2023-10-18 09:17:31,15.0890284,0.000206,53.2169,319.5294,96.2299,263.8928,0.0020801,0.0003303,0.0,0 STARLINK-3584,1 51885U 22022AK  23291.38717394  .00033030  00000-0  20801-2 0  9996,2 51885  53.2169 319.5294 0002060  96.2299 263.8928 15.08902840 91402,6917.688,95.434,540.978,538.128,0.0
51885.0,STARLINK-3584,PAYLOAD,2023-10-18 18:49:49,15.0889041,0.0001136,53.2162,317.745,70.7516,289.3599,0.0024053,0.00038253,0.0,0 STARLINK-3584,1 51885U 22022AK  23291.78460563  .00038253  00000-0  24053-2 0  9998,2 51885  53.2162 317.7450 0001136  70.7516 289.3599 15.08890410 91463,6917.726,95.434,540.377,538.805,0.0
51885.0,STARLINK-3584,PAYLOAD,2023-10-19 01:11:22,15.08866034,0.0002732,53.2172,316.557,88.0107,272.1198,0.0016353,0.00025853,0.0,0 STARLINK-3584,1 51885U 22022AK  23292.04957081  .00025853  00000-0  16353-2 0  9990,2 51885  53.2172 316.5570 0002732  88.0107 272.1198 15.08866034 91500,6917.801,95.436,541.556,537.776,0.0
51885.0,STARLINK-3584,PAYLOAD,2023-10-19 10:43:42,15.08834156,0.0001916,53.2156,314.7721,81.4421,278.6788,0.0019085,0.00030212,0.0,0 STARLINK-3584,1 51885U 22022AK  23292.44701822  .00030212  00000-0  19085-2 0  9994,2 51885  53.2156 314.7721 0001916  81.4421 278.6788 15.08834156 91561,6917.898,95.438,541.089,538.438,0.0
51885.0,STARLINK-3584,PAYLOAD,2023-10-19 18:40:38,15.08840526,0.0002374,53.2163,313.2844,85.8776,274.2487,0.0019141,0.00030307,0.0,0 STARLINK-3584,1 51885U 22022AK  23292.77822459  .00030307  00000-0  19141-2 0  9998,2 51885  53.2163 313.2844 0002374  85.8776 274.2487 15.08840526 91611,6917.879,95.438,541.386,538.101,0.0
51885.0,STARLINK-3584,PAYLOAD,2023-10-20 10:34:30,15.08835976,0.0002035,53.2161,310.3093,85.6706,274.4519,0.00049812,7.648e-05,0.0,0 STARLINK-3584,1 51885U 22022AK  23293.44062572  .00007648  00000-0  49812-3 0  9996,2 51885  53.2161 310.3093 0002035  85.6706 274.4519 15.08835976 91710,6917.893,95.438,541.165,538.35,0.0
51885.0,STARLINK-3584,PAYLOAD,2023-10-21 00:52:58,15.08835184,0.0002029,53.2155,307.6346,92.081,268.0415,0.00029407,4.394e-05,0.0,0 STARLINK-3584,1 51885U 22022AK  23294.03679032  .00004394  00000-0  29407-3 0  9990,2 51885  53.2155 307.6346 0002029  92.0810 268.0415 15.08835184 91809,6917.895,95.438,541.164,538.356,0.0
51885.0,STARLINK-3584,PAYLOAD,2023-10-21 07:14:31,15.08841657,0.0002034,53.2166,306.4448,95.9102,264.2122,0.00045715,6.995e-05,0.0,0 STARLINK-3584,1 51885U 22022AK  23294.30174958  .00006995  00000-0  45715-3 0  9996,2 51885  53.2166 306.4448 0002034  95.9102 264.2122 15.08841657 91842,6917.875,95.437,541.147,538.333,0.0
51885.0,STARLINK-3584,PAYLOAD,2023-10-21 18:22:13,15.08843701,0.0001838,53.2153,304.3635,94.4127,265.7075,0.00034463,5.202e-05,0.0,0 STARLINK-3584,1 51885U 22022AK  23294.76542928  .00005202  00000-0  34463-3 0  9990,2 51885  53.2153 304.3635 0001838  94.4127 265.7075 15.08843701 91918,6917.869,95.437,541.006,538.463,0.0
51885.0,STARLINK-3584,PAYLOAD,2023-10-22 03:54:31,15.088469,0.0001841,53.2153,302.5791,94.4985,265.6218,0.00038242,5.805e-05,0.0,0 STARLINK-3584,1 51885U 22022AK  23295.16286800  .00005805  00000-0  38242-3 0  9997,2 51885  53.2153 302.5791 0001841  94.4985 265.6218 15.08846900 91975,6917.859,95.437,540.998,538.451,0.0
51885.0,STARLINK-3584,PAYLOAD,2023-10-22 07:05:17,15.08849018,0.0001833,53.2158,301.9845,92.9014,267.2188,0.00037706,5.719e-05,0.0,0 STARLINK-3584,1 51885U 22022AK  23295.29534705  .00005719  00000-0  37706-3 0  9999,2 51885  53.2158 301.9845 0001833  92.9014 267.2188 15.08849018 91999,6917.853,95.437,540.986,538.45,0.0
51885.0,STARLINK-3584,PAYLOAD,2023-10-23 03:45:19,15.08839679,0.0001552,53.215,298.1176,91.0071,269.1099,0.00012439,1.692e-05,0.0,0 STARLINK-3584,1 51885U 22022AK  23296.15647143  .00001692  00000-0  12439-3 0  9998,2 51885  53.2150 298.1176 0001552  91.0071 269.1099 15.08839679 92126,6917.881,95.438,540.82,538.673,0.0
51885.0,STARLINK-3584,PAYLOAD,2023-10-23 06:56:05,15.0883825,0.0001647,53.215,297.5229,92.7923,267.3257,7.2915e-05,8.73e-06,0.0,0 STARLINK-3584,1 51885U 22022AK  23296.28895215  .00000873  00000-0  72915-4 0  9993,2 51885  53.2150 297.5229 0001647  92.7923 267.3257 15.08838250 92149,6917.886,95.438,540.89,538.611,0.0
51885.0,STARLINK-3584,PAYLOAD,2023-10-24 05:11:29,15.08841295,0.0001754,53.2154,293.3597,93.9415,266.1778,9.4118e-05,1.21e-05,0.0,0 STARLINK-3584,1 51885U 22022AK  23297.21631317  .00001210  00000-0  94118-4 0  9993,2 51885  53.2154 293.3597 0001754  93.9415 266.1778 15.08841295 92286,6917.876,95.437,540.955,538.528,0.0
51885.0,STARLINK-3584,PAYLOAD,2023-10-24 09:57:38,15.08846621,0.000172,53.2159,292.4697,92.5769,267.542,0.00017405,2.484e-05,0.0,0 STARLINK-3584,1 51885U 22022AK  23297.41503078  .00002484  00000-0  17405-3 0  9994,2 51885  53.2159 292.4697 0001720  92.5769 267.5420 15.08846621 92313,6917.86,95.437,540.915,538.535,0.0
